[{"OBJECT_NAME":"GEOSCAN 3 (RS92S3)","OBJECT_ID":"2025-155T","EPOCH":"2026-03-09T22:52:10.587648","MEAN_MOTION":15.31696739,"ECCENTRICITY":0.00068078,"INCLINATION":97.4455,"RA_OF_ASC_NODE":37.9971,"ARG_OF_PERICENTER":154.1387,"MEAN_ANOMALY":206.0196,"EPHEMERIS_TYPE":0,"CLASSIFICATION_TYPE":"U","NORAD_CAT_ID":64893,"ELEMENT_SET_NO":999,"REV_AT_EPOCH":6564,"BSTAR":0.00078414081,"MEAN_MOTION_DOT":0.00023985,"MEAN_MOTION_DDOT":0},{"OBJECT_NAME":"STARLINK-35092","OBJECT_ID":"2025-189V","EPOCH":"2026-03-09T14:01:14.890368","MEAN_MOTION":15.30215946,"ECCENTRICITY":9.49e-5,"INCLINATION":53.1604,"RA_OF_ASC_NODE":207.0206,"ARG_OF_PERICENTER":87.1219,"MEAN_ANOMALY":272.989,"EPHEMERIS_TYPE":0,"CLASSIFICATION_TYPE":"U","NORAD_CAT_ID":65342,"ELEMENT_SET_NO":999,"REV_AT_EPOCH":3100,"BSTAR":0.0012608,"MEAN_MOTION_DOT":0.00037187,"MEAN_MOTION_DDOT":0}]
